NORAD_CAT_ID,OBJECT_NAME,OBJECT_TYPE,EPOCH,MEAN_MOTION,ECCENTRICITY,INCLINATION,RA_OF_ASC_NODE,ARG_OF_PERICENTER,MEAN_ANOMALY,BSTAR,MEAN_MOTION_DOT,MEAN_MOTION_DDOT,TLE_LINE0,TLE_LINE1,TLE_LINE2,SEMIMAJOR_AXIS,PERIOD,APOGEE,PERIGEE,DECAYED
55932.0,STARLINK-5848,PAYLOAD,2023-07-11 11:50:36,15.69914775,0.0003118,69.9978,215.6814,271.132,88.9519,-5.0223e-06,-8.16e-06,0.0,0 STARLINK-5848,1 55932U 23037U   23192.49347270 -.00000816  00000-0 -50223-5 0  9996,2 55932  69.9978 215.6814 0003118 271.1320  88.9519 15.69914775 18698,6737.278,91.725,361.244,357.042,0.0
55932.0,STARLINK-5848,PAYLOAD,2023-07-12 07:43:21,15.69932179,0.0003395,69.9964,213.3508,264.492,95.5888,1.2578e-05,1.3e-05,0.0,0 STARLINK-5848,1 55932U 23037U   23193.32177452  .00001300  00000-0  12578-4 0  9999,2 55932  69.9964 213.3508 0003395 264.4920  95.5888 15.69932179 18822,6737.228,91.724,361.38,356.806,0.0
55932.0,STARLINK-5848,PAYLOAD,2023-07-12 13:50:22,15.69921175,0.0003598,69.9988,212.6353,266.7869,93.2915,3.3304e-05,3.793e-05,0.0,0 STARLINK-5848,1 55932U 23037U   23193.57664723  .00003793  00000-0  33304-4 0  9996,2 55932  69.9988 212.6353 0003598 266.7869  93.2915 15.69921175 18864,6737.26,91.724,361.549,356.7,0.0
55932.0,STARLINK-5848,PAYLOAD,2023-07-14 10:11:10,15.69932359,0.0003662,69.9985,207.4414,267.5963,92.4814,1.9863e-05,2.177e-05,0.0,0 STARLINK-5848,1 55932U 23037U   23195.42442824  .00002177  00000-0  19863-4 0  9997,2 55932  69.9985 207.4414 0003662 267.5963  92.4814 15.69932359 19155,6737.228,91.724,361.56,356.625,0.0
55932.0,STARLINK-5848,PAYLOAD,2023-07-14 17:49:56,15.69922243,0.0003189,69.9994,206.5469,269.5549,90.5281,1.4892e-05,1.578e-05,0.0,0 STARLINK-5848,1 55932U 23037U   23195.74301846  .00001578  00000-0  14892-4 0  9991,2 55932  69.9994 206.5469 0003189 269.5549  90.5281 15.69922243 19205,6737.256,91.724,361.27,356.973,0.0
55932.0,STARLINK-5848,PAYLOAD,2023-07-16 01:56:44,15.69921606,0.0003191,70.0004,202.7851,258.5313,101.5524,1.1426e-05,1.161e-05,0.0,0 STARLINK-5848,1 55932U 23037U   23197.08107047  .00001161  00000-0  11426-4 0  9995,2 55932  70.0004 202.7851 0003191 258.5313 101.5524 15.69921606 19411,6737.258,91.724,361.273,356.973,0.0
55932.0,STARLINK-5848,PAYLOAD,2023-07-17 17:42:17,15.69928245,0.000356,69.9987,198.1265,264.7979,95.281,1.5925e-05,1.703e-05,0.0,0 STARLINK-5848,1 55932U 23037U   23198.73770041  .00001703  00000-0  15925-4 0  9998,2 55932  69.9987 198.1265 0003560 264.7979  95.2810 15.69928245 19673,6737.239,91.724,361.503,356.706,0.0
55932.0,STARLINK-5848,PAYLOAD,2023-07-19 09:27:51,15.699211,0.0002788,70.0011,193.4709,255.9639,104.1246,5.8784e-06,4.94e-06,0.0,0 STARLINK-5848,1 55932U 23037U   23200.39434178  .00000494  00000-0  58784-5 0  9999,2 55932  70.0011 193.4709 0002788 255.9639 104.1246 15.69921100 19936,6737.26,91.724,361.003,357.246,0.0
55932.0,STARLINK-5848,PAYLOAD,2023-07-20 11:27:39,15.6990969,0.0002281,70.0015,190.426,287.0111,73.0835,-8.0026e-06,-1.173e-05,0.0,0 STARLINK-5848,1 55932U 23037U   23201.47753615 -.00001173  00000-0 -80026-5 0  9990,2 55932  70.0015 190.4260 0002281 287.0111  73.0835 15.69909690 20107,6737.292,91.725,360.694,357.621,0.0
55932.0,STARLINK-5848,PAYLOAD,2023-07-21 08:52:09,15.69934017,0.0003329,70.0004,187.9141,265.5756,94.5059,3.3407e-05,3.808e-05,0.0,0 STARLINK-5848,1 55932U 23037U   23202.36955539  .00003808  00000-0  33407-4 0  9993,2 55932  70.0004 187.9141 0003329 265.5756  94.5059 15.69934017 20246,6737.223,91.724,361.331,356.845,0.0
55932.0,STARLINK-5848,PAYLOAD,2023-07-21 11:55:40,15.6992716,0.0003115,70.0005,187.5571,273.8986,86.1854,1.7566e-05,1.9e-05,0.0,0 STARLINK-5848,1 55932U 23037U   23202.49699285  .00001900  00000-0  17566-4 0  9999,2 55932  70.0005 187.5571 0003115 273.8986  86.1854 15.69927160 20263,6737.242,91.724,361.206,357.009,0.0
55932.0,STARLINK-5848,PAYLOAD,2023-07-24 10:16:15,15.69931288,0.0003655,69.9992,179.3176,263.073,97.005,2.9115e-05,3.29e-05,0.0,0 STARLINK-5848,1 55932U 23037U   23205.42795943  .00003290  00000-0  29115-4 0  9990,2 55932  69.9992 179.3176 0003655 263.0730  97.0050 15.69931288 20380,6737.231,91.724,361.558,356.633,0.0
55932.0,STARLINK-5848,PAYLOAD,2023-07-25 07:40:47,15.6992585,0.0003312,69.9999,176.8095,260.8664,99.2157,2.6387e-05,2.961e-05,0.0,0 STARLINK-5848,1 55932U 23037U   23206.31999698  .00002961  00000-0  26387-4 0  9994,2 55932  69.9999 176.8095 0003312 260.8664  99.2157 15.69925850 20526,6737.246,91.724,361.343,356.88,0.0
55932.0,STARLINK-5848,PAYLOAD,2023-07-26 08:08:49,15.69924941,0.0003635,70.0021,173.9462,263.8691,96.209,1.8563e-05,2.02e-05,0.0,0 STARLINK-5848,1 55932U 23037U   23207.33946275  .00002020  00000-0  18563-4 0  9993,2 55932  70.0021 173.9462 0003635 263.8691  96.2090 15.69924941 20682,6737.249,91.724,361.563,356.665,0.0
55932.0,STARLINK-5848,PAYLOAD,2023-07-27 00:58:06,15.69916104,0.0004931,69.997,171.9715,279.378,80.6858,-8.2035e-06,-1.2e-05,0.0,0 STARLINK-5848,1 55932U 23037U   23208.04034975 -.00001200  00000-0 -82035-5 0  9994,2 55932  69.9970 171.9715 0004931 279.3780  80.6858 15.69916104 21134,6737.274,91.725,362.461,355.817,0.0
55932.0,STARLINK-5848,PAYLOAD,2023-07-27 10:08:37,15.6991733,0.0003087,69.9993,170.8972,257.5637,102.5214,-6.0226e-06,-9.36e-06,0.0,0 STARLINK-5848,1 55932U 23037U   23208.42265145 -.00000936  00000-0 -60226-5 0  9994,2 55932  69.9993 170.8972 0003087 257.5637 102.5214 15.69917330 20852,6737.271,91.725,361.215,357.056,0.0
55932.0,STARLINK-5848,PAYLOAD,2023-07-27 14:43:52,15.69918486,0.0003377,70.0006,170.3616,264.4371,95.6439,-3.3053e-06,-6.1e-06,0.0,0 STARLINK-5848,1 55932U 23037U   23208.61380086 -.00000610  00000-0 -33053-5 0  9994,2 55932  70.0006 170.3616 0003377 264.4371  95.6439 15.69918486 20881,6737.267,91.725,361.407,356.857,0.0
55932.0,STARLINK-5848,PAYLOAD,2023-07-27 23:54:22,15.69925536,0.0003651,70.0003,169.2871,264.0169,96.0611,7.4081e-07,-1.24e-06,0.0,0 STARLINK-5848,1 55932U 23037U   23208.99609878 -.00000124  00000-0  74081-6 0  9994,2 55932  70.0003 169.2871 0003651 264.0169  96.0611 15.69925536 21280,6737.247,91.724,361.572,356.652,0.0
55932.0,STARLINK-5848,PAYLOAD,2023-07-28 07:33:08,15.69930167,0.0003539,69.9992,168.3892,257.7896,102.2904,2.4965e-05,2.791e-05,0.0,0 STARLINK-5848,1 55932U 23037U   23209.31468083  .00002791  00000-0  24965-4 0  9997,2 55932  69.9992 168.3892 0003539 257.7896 102.2904 15.69930167 20996,6737.234,91.724,361.483,356.714,0.0
55932.0,STARLINK-5848,PAYLOAD,2023-07-29 03:25:55,15.69928882,0.0003242,69.9992,166.0605,258.4936,101.5896,3.6005e-05,4.119e-05,0.0,0 STARLINK-5848,1 55932U 23037U   23210.14299907  .00004119  00000-0  36005-4 0  9991,2 55932  69.9992 166.0605 0003242 258.4936 101.5896 15.69928882 21463,6737.237,91.724,361.287,356.918,0.0
55932.0,STARLINK-5848,PAYLOAD,2023-07-29 14:08:11,15.69919598,0.0002942,70.0003,164.8089,265.9392,94.1468,7.9462e-06,7.43e-06,0.0,0 STARLINK-5848,1 55932U 23037U   23210.58902253  .00000743  00000-0  79462-5 0  9998,2 55932  70.0003 164.8089 0002942 265.9392  94.1468 15.69919598 21530,6737.264,91.724,361.111,357.147,0.0
55932.0,STARLINK-5848,PAYLOAD,2023-07-31 02:50:14,15.69917577,0.0003512,69.9992,160.5094,270.7746,89.3047,-1.7605e-05,-2.329e-05,0.0,0 STARLINK-5848,1 55932U 23037U   23212.11821883 -.00002329  00000-0 -17605-4 0  9992,2 55932  69.9992 160.5094 0003512 270.7746  89.3047 15.69917577 21774,6737.27,91.725,361.501,356.769,0.0
55932.0,STARLINK-5848,PAYLOAD,2023-08-01 04:50:00,15.69934168,0.0003478,69.998,157.4639,269.3004,90.7793,1.735e-05,1.875e-05,0.0,0 STARLINK-5848,1 55932U 23037U   23213.20139556  .00001875  00000-0  17350-4 0  9992,2 55932  69.9980 157.4639 0003478 269.3004  90.7793 15.69934168 21941,6737.222,91.724,361.431,356.744,0.0
55932.0,STARLINK-5848,PAYLOAD,2023-08-01 23:11:02,15.69913239,0.0002848,69.9988,155.3133,261.8292,98.2581,2.3877e-05,2.658e-05,0.0,0 STARLINK-5848,1 55932U 23037U   23213.96600601  .00002658  00000-0  23877-4 0  9990,2 55932  69.9988 155.3133 0002848 261.8292  98.2581 15.69913239 22069,6737.282,91.725,361.066,357.228,0.0
55932.0,STARLINK-5848,PAYLOAD,2023-08-02 23:39:04,15.69928999,0.00034,69.9984,152.4471,276.4214,83.6594,1.2623e-05,1.306e-05,0.0,0 STARLINK-5848,1 55932U 23037U   23214.98546974  .00001306  00000-0  12623-4 0  9991,2 55932  69.9984 152.4471 0003400 276.4214  83.6594 15.69928999 22228,6737.237,91.724,361.393,356.811,0.0
55932.0,STARLINK-5848,PAYLOAD,2023-08-03 07:17:51,15.69908863,0.0003138,69.9979,151.5527,269.5753,90.5083,-1.8311e-05,-2.412e-05,0.0,0 STARLINK-5848,1 55932U 23037U   23215.30407023 -.00002412  00000-0 -18311-4 0  9990,2 55932  69.9979 151.5527 0003138 269.5753  90.5083 15.69908863 22276,6737.295,91.725,361.274,357.046,0.0
55932.0,STARLINK-5848,PAYLOAD,2023-08-03 22:35:22,15.6992014,0.0003685,69.9977,149.7595,272.8943,87.1831,1.7906e-06,2e-08,0.0,0 STARLINK-5848,1 55932U 23037U   23215.94122864  .00000002  00000-0  17906-5 0  9998,2 55932  69.9977 149.7595 0003685 272.8943  87.1831 15.69920140 22379,6737.262,91.724,361.61,356.645,0.0
55932.0,STARLINK-5848,PAYLOAD,2023-08-04 06:14:08,15.69910753,0.0002904,69.9989,148.8664,271.669,88.4173,-9.0765e-06,-1.303e-05,0.0,0 STARLINK-5848,1 55932U 23037U   23216.25982025 -.00001303  00000-0 -90765-5 0  9997,2 55932  69.9989 148.8664 0002904 271.6690  88.4173 15.69910753 22426,6737.289,91.725,361.111,357.198,0.0
55932.0,STARLINK-5848,PAYLOAD,2023-08-04 23:03:23,15.69927089,0.0003597,69.9977,146.8948,280.0634,80.0155,4.7641e-06,3.6e-06,0.0,0 STARLINK-5848,1 55932U 23037U   23216.96069198  .00000360  00000-0  47641-5 0  9997,2 55932  69.9977 146.8948 0003597 280.0634  80.0155 15.69927089 22537,6737.243,91.724,361.531,356.684,0.0
55932.0,STARLINK-5848,PAYLOAD,2023-08-05 06:42:08,15.6993656,0.0003491,69.9976,145.9963,280.359,79.7212,1.0257e-05,1.021e-05,0.0,0 STARLINK-5848,1 55932U 23037U   23217.27926709  .00001021  00000-0  10257-4 0  9999,2 55932  69.9976 145.9963 0003491 280.3590  79.7212 15.69936560 22588,6737.216,91.723,361.432,356.729,0.0
